OBJECT_NAME,OBJECT_ID,EPOCH,MEAN_MOTION,ECCENTRICITY,INCLINATION,RA_OF_ASC_NODE,ARG_OF_PERICENTER,MEAN_ANOMALY,EPHEMERIS_TYPE,CLASSIFICATION_TYPE,NORAD_CAT_ID,ELEMENT_SET_NO,REV_AT_EPOCH,BSTAR,MEAN_MOTION_DOT,MEAN_MOTION_DDOT
ONEWEB-0492,2022-138B,2026-06-05T17:04:35.917248,13.19723214,.0001631,87.9149,307.2556,103.3251,256.8064,0,U,54114,999,17532,.23262E-2,.944E-5,0
ONEWEB-0495,2022-138C,2026-06-05T16:32:44.256768,13.19725476,.000115,87.9164,307.2627,88.8269,271.2995,0,U,54115,999,17530,-.46817E-3,-.174E-5,0
ONEWEB-0497,2022-138D,2026-06-05T16:50:55.949280,13.19725531,.0001771,87.9164,307.2515,96.8406,263.2928,0,U,54116,999,17529,-.622E-3,-.236E-5,0
ONEWEB-0499,2022-138E,2026-06-05T16:27:04.372128,13.19726126,.0001655,87.9165,307.2651,90.7156,269.4166,0,U,54117,999,17530,.1609E-3,.77E-6,0
ONEWEB-0500,2022-138F,2026-06-05T16:30:27.772416,13.19703123,.0001726,87.9174,307.2572,108.1504,251.9816,0,U,54118,999,17531,.1069E-1,.4293E-4,0
ONEWEB-0501,2022-138G,2026-06-05T09:56:57.513120,13.19763634,.0002489,87.9166,307.3134,114.2342,245.9051,0,U,54119,999,17525,-.18866E-1,-.7538E-4,0
ONEWEB-0502,2022-138H,2026-06-05T16:53:11.332896,13.19724940,.0001655,87.9171,307.2426,88.8160,271.3162,0,U,54120,999,17531,-.46519E-3,-.173E-5,0
ONEWEB-0503,2022-138J,2026-06-05T16:37:17.096736,13.19725240,.0002015,87.9172,307.2504,89.8041,270.3322,0,U,54121,999,17530,-.46675E-3,-.174E-5,0
ONEWEB-0504,2022-138K,2026-06-05T16:19:05.869920,13.19725310,.0001742,87.9175,307.2594,88.8595,271.2737,0,U,54122,999,17531,-.3694E-5,.11E-6,0
ONEWEB-0505,2022-138L,2026-06-05T16:14:33.779040,13.19725692,.0001483,87.9169,307.2595,86.6544,273.4758,0,U,54123,999,17529,.22463E-3,.103E-5,0
ONEWEB-0506,2022-138M,2026-06-05T19:16:28.068096,13.19739259,.0001412,87.9153,307.2316,91.9452,268.1842,0,U,54124,999,17530,.71087E-2,.286E-4,0
ONEWEB-0507,2022-138N,2026-06-05T16:07:43.576896,13.19725662,.0001549,87.9161,307.2703,95.5913,264.5397,0,U,54125,999,17533,-.33216E-3,-.12E-5,0
ONEWEB-0508,2022-138P,2026-06-05T16:03:09.372672,13.19725786,.0001401,87.9160,307.2708,97.6646,262.4646,0,U,54126,999,17531,-.35238E-3,-.128E-5,0
ONEWEB-0509,2022-138Q,2026-06-05T19:05:04.479072,13.19753519,.0001955,87.9166,307.2330,95.2888,264.8468,0,U,54127,999,17530,.91792E-2,.3691E-4,0
ONEWEB-0510,2022-138R,2026-06-05T14:48:28.254816,13.20772506,.00024,87.9192,276.7420,100.7104,259.4299,0,U,54128,999,17775,.91997E-4,.5E-6,0
ONEWEB-0511,2022-138S,2026-06-05T09:54:43.083360,13.19725348,.0001802,87.9166,307.3132,83.6962,276.4376,0,U,54129,999,17528,-.36685E-3,-.134E-5,0
ONEWEB-0512,2022-138T,2026-06-05T11:32:29.819616,13.19724378,.0001591,87.9157,307.3059,86.7521,273.3793,0,U,54130,999,17526,.10339E-3,.54E-6,0
ONEWEB-0513,2022-138U,2026-06-05T15:25:47.176032,13.20268025,.0001563,87.9167,307.2190,63.4380,296.6913,0,U,54131,999,17519,-.66087E-4,-.14E-6,0
ONEWEB-0514,2022-138V,2026-06-05T19:11:58.660800,13.19669841,.0001502,87.9163,307.2353,54.8317,305.2956,0,U,54132,999,17532,.29715E-1,.11915E-3,0
ONEWEB-0515,2022-138W,2026-06-05T09:01:46.482816,13.20772393,.0002472,87.9195,276.7836,118.1785,241.9598,0,U,54133,999,17774,.5492E-5,.15E-6,0
ONEWEB-0516,2022-138X,2026-06-05T16:46:22.591776,13.19725524,.0001713,87.9155,307.2624,98.9325,261.2001,0,U,54134,999,17531,-.54412E-3,-.205E-5,0
ONEWEB-0517,2022-138Y,2026-06-05T16:16:48.411840,13.19727056,.0001821,87.9174,307.2588,87.3695,272.7646,0,U,54135,999,17531,.31821E-3,.14E-5,0
ONEWEB-0518,2022-138Z,2026-06-05T16:44:09.495168,13.19726932,.0001707,87.9160,307.2647,101.0387,259.0937,0,U,54136,999,17531,.99472E-4,.53E-6,0
ONEWEB-0519,2022-138AA,2026-06-05T19:09:42.084000,13.19727209,.0002052,87.9169,307.2351,94.8343,265.3024,0,U,54137,999,17533,.75351E-3,.315E-5,0
ONEWEB-0520,2022-138AB,2026-06-05T16:21:22.211712,13.19725572,.0001559,87.9170,307.2584,93.5465,266.5846,0,U,54138,999,17530,-.34895E-3,-.127E-5,0
ONEWEB-0521,2022-138AC,2026-06-05T11:41:35.979072,13.19726757,.0002035,87.9170,307.2853,94.0796,266.0570,0,U,54139,999,17522,-.12262E-3,-.36E-6,0
ONEWEB-0522,2022-138AD,2026-06-05T16:39:33.645024,13.19725611,.000168,87.9173,307.2466,92.9991,267.1334,0,U,54140,999,17529,-.43622E-3,-.162E-5,0
ONEWEB-0523,2022-138AE,2026-06-05T14:09:39.442176,13.20770552,.0002733,87.9190,276.7514,106.8373,253.3061,0,U,54141,999,17777,.26689E-3,.122E-5,0
ONEWEB-0524,2022-138AF,2026-06-05T19:22:23.219616,13.20770766,.0002208,87.9189,276.7054,123.8228,236.3116,0,U,54142,999,17780,.14581E-3,.72E-6,0
ONEWEB-0525,2022-138AG,2026-06-05T17:06:50.932800,13.19724719,.0001408,87.9168,307.2509,96.8717,263.2576,0,U,54143,999,17531,-.49591E-4,-.7E-7,0
