ONEWEB-0492             
1 54114U 22138B   26156.71152682  .00000944  00000+0  23262-2 0  9996
2 54114  87.9149 307.2556 0001631 103.3251 256.8064 13.19723214175321
ONEWEB-0495             
1 54115U 22138C   26156.68940112 -.00000174  00000+0 -46817-3 0  9995
2 54115  87.9164 307.2627 0001150  88.8269 271.2995 13.19725476175304
ONEWEB-0497             
1 54116U 22138D   26156.70203645 -.00000236  00000+0 -62200-3 0  9995
2 54116  87.9164 307.2515 0001771  96.8406 263.2928 13.19725531175299
ONEWEB-0499             
1 54117U 22138E   26156.68546727  .00000077  00000+0  16090-3 0  9991
2 54117  87.9165 307.2651 0001655  90.7156 269.4166 13.19726126175303
ONEWEB-0500             
1 54118U 22138F   26156.68782144  .00004293  00000+0  10690-1 0  9999
2 54118  87.9174 307.2572 0001726 108.1504 251.9816 13.19703123175317
ONEWEB-0501             
1 54119U 22138G   26156.41455455 -.00007538  00000+0 -18866-1 0  9993
2 54119  87.9166 307.3134 0002489 114.2342 245.9051 13.19763634175259
ONEWEB-0502             
1 54120U 22138H   26156.70360339 -.00000173  00000+0 -46519-3 0  9999
2 54120  87.9171 307.2426 0001655  88.8160 271.3162 13.19724940175318
ONEWEB-0503             
1 54121U 22138J   26156.69255899 -.00000174  00000+0 -46675-3 0  9996
2 54121  87.9172 307.2504 0002015  89.8041 270.3322 13.19725240175307
ONEWEB-0504             
1 54122U 22138K   26156.67992905  .00000011  00000+0 -36940-5 0  9996
2 54122  87.9175 307.2594 0001742  88.8595 271.2737 13.19725310175318
ONEWEB-0505             
1 54123U 22138L   26156.67677985  .00000103  00000+0  22463-3 0  9999
2 54123  87.9169 307.2595 0001483  86.6544 273.4758 13.19725692175292
ONEWEB-0506             
1 54124U 22138M   26156.80310264  .00002860  00000+0  71087-2 0  9996
2 54124  87.9153 307.2316 0001412  91.9452 268.1842 13.19739259175307
ONEWEB-0507             
1 54125U 22138N   26156.67203214 -.00000120  00000+0 -33216-3 0  9990
2 54125  87.9161 307.2703 0001549  95.5913 264.5397 13.19725662175331
ONEWEB-0508             
1 54126U 22138P   26156.66885848 -.00000128  00000+0 -35238-3 0  9993
2 54126  87.9160 307.2708 0001401  97.6646 262.4646 13.19725786175318
ONEWEB-0509             
1 54127U 22138Q   26156.79519073  .00003691  00000+0  91792-2 0  9994
2 54127  87.9166 307.2330 0001955  95.2888 264.8468 13.19753519175304
ONEWEB-0510             
1 54128U 22138R   26156.61699369  .00000050  00000+0  91997-4 0  9998
2 54128  87.9192 276.7420 0002400 100.7104 259.4299 13.20772506177755
ONEWEB-0511             
1 54129U 22138S   26156.41299865 -.00000134  00000+0 -36685-3 0  9991
2 54129  87.9166 307.3132 0001802  83.6962 276.4376 13.19725348175285
ONEWEB-0512             
1 54130U 22138T   26156.48090069  .00000054  00000+0  10339-3 0  9992
2 54130  87.9157 307.3059 0001591  86.7521 273.3793 13.19724378175264
ONEWEB-0513             
1 54131U 22138U   26156.64290713 -.00000014  00000+0 -66087-4 0  9999
2 54131  87.9167 307.2190 0001563  63.4380 296.6913 13.20268025175193
ONEWEB-0514             
1 54132U 22138V   26156.79998450  .00011915  00000+0  29715-1 0  9993
2 54132  87.9163 307.2353 0001502  54.8317 305.2956 13.19669841175326
ONEWEB-0515             
1 54133U 22138W   26156.37623244  .00000015  00000+0  54920-5 0  9993
2 54133  87.9195 276.7836 0002472 118.1785 241.9598 13.20772393177743
ONEWEB-0516             
1 54134U 22138X   26156.69887259 -.00000205  00000+0 -54412-3 0  9994
2 54134  87.9155 307.2624 0001713  98.9325 261.2001 13.19725524175314
ONEWEB-0517             
1 54135U 22138Y   26156.67833810  .00000140  00000+0  31821-3 0  9992
2 54135  87.9174 307.2588 0001821  87.3695 272.7646 13.19727056175311
ONEWEB-0518             
1 54136U 22138Z   26156.69733212  .00000053  00000+0  99472-4 0  9990
2 54136  87.9160 307.2647 0001707 101.0387 259.0937 13.19726932175311
ONEWEB-0519             
1 54137U 22138AA  26156.79840375  .00000315  00000+0  75351-3 0  9991
2 54137  87.9169 307.2351 0002052  94.8343 265.3024 13.19727209175335
ONEWEB-0520             
1 54138U 22138AB  26156.68150708 -.00000127  00000+0 -34895-3 0  9995
2 54138  87.9170 307.2584 0001559  93.5465 266.5846 13.19725572175301
ONEWEB-0521             
1 54139U 22138AC  26156.48722198 -.00000036  00000+0 -12262-3 0  9995
2 54139  87.9170 307.2853 0002035  94.0796 266.0570 13.19726757175220
ONEWEB-0522             
1 54140U 22138AD  26156.69413941 -.00000162  00000+0 -43622-3 0  9997
2 54140  87.9173 307.2466 0001680  92.9991 267.1334 13.19725611175299
ONEWEB-0523             
1 54141U 22138AE  26156.59003984  .00000122  00000+0  26689-3 0  9997
2 54141  87.9190 276.7514 0002733 106.8373 253.3061 13.20770552177777
ONEWEB-0524             
1 54142U 22138AF  26156.80721319  .00000072  00000+0  14581-3 0  9993
2 54142  87.9189 276.7054 0002208 123.8228 236.3116 13.20770766177803
ONEWEB-0525             
1 54143U 22138AG  26156.71308950 -.00000007  00000+0 -49591-4 0  9996
2 54143  87.9168 307.2509 0001408  96.8717 263.2576 13.19724719175317
